STARLINK-1084
1 24915C 20001B   21325.11874416  .00044152  00000-0  29579-2 0  3254
2 24915  53.0512 192.7013 0001752  76.5332 129.0094 15.06358298    18
